STARLINK-3054           
1 49167U 21082AP  22272.30720396 -.00000702  00000+0 -51073-4 0  9995
2 49167  69.9998 224.7549 0003034 252.5746 107.5081 14.98320771 58831
STARLINK-3101           
1 49168U 21082AQ  22272.53741873  .00006939  00000+0  58875-3 0  9996
2 49168  70.0022 204.1762 0002727 256.1546 103.9309 14.98328470 59364
STARLINK-3046           
1 49169U 21082AR  22272.34190505  .00004406  00000+0  37676-3 0  9999
2 49169  70.0031 204.6718 0002431 261.7969  98.2914 14.98337156 58137
STARLINK-3074           
1 49170U 21082AS  22272.28130325 -.00000306  00000+0 -17897-4 0  9999
2 49170  70.0009 224.8102 0002924 252.2390 107.8450 14.98324120 57638
STARLINK-3107           
1 49171U 21082AT  22272.56742928  .00000424  00000+0  43364-4 0  9996
2 49171  70.0013 224.0949 0002323 278.8392  81.2503 14.98316698 58832
STARLINK-3091           
1 49172U 21082AU  22272.51152924  .00005266  00000+0  44883-3 0  9998
2 49172  70.0020 204.2436 0003157 260.3070  99.7732 14.98327683 58156
STARLINK-3045           
1 49173U 21082AV  22272.53263900  .00001518  00000+0  13501-3 0  9997
2 49173  70.0005 204.1816 0003311 256.8408 103.2382 14.98330272 58169
STARLINK-3047           
1 49174U 21082AW  22272.34420871 -.00010392  00000+0 -88757-3 0  9996
2 49174  70.0020 204.7342 0002204 282.2998  77.7914 14.97311194 59308
STARLINK-3087           
1 49175U 21082AX  22272.55920840  .00004445  00000+0  38020-3 0  9999
2 49175  69.9999 204.1258 0003100 258.0002 102.0810 14.98318823 58161
STARLINK-3069           
1 49176U 21082AY  22272.47434959 -.00002589  00000+0 -21837-3 0  9999
2 49176  70.0025 184.2877 0003172 263.1619  96.9178 14.96704916 58641
STARLINK-3103           
1 49177U 21082AZ  22272.49388845  .00000478  00000+0  49738-4 0  9998
2 49177  70.0038 184.2446 0002975 265.8863  94.1955 14.96719232 59841
STARLINK-3086           
1 49178U 21082BA  22272.59602993  .00000586  00000+0  56902-4 0  9994
2 49178  70.0011 224.0316 0003125 248.6924 111.3902 14.98329849 58832
STARLINK-3043           
1 49179U 21082BB  22272.48413199  .00001304  00000+0  12190-3 0  9990
2 49179  70.0044 184.2680 0002839 251.0513 109.0338 14.96705650 58645
STARLINK-3050           
1 49180U 21082BC  22272.54012205  .00002053  00000+0  17976-3 0  9991
2 49180  70.0010 204.1630 0003295 257.7385 102.3406 14.98338721 59336
STARLINK-3059           
1 49181U 21082BD  22272.30991611  .00000959  00000+0  88147-4 0  9995
2 49181  69.9992 224.7521 0003037 262.8379  97.2435 14.98334535 58820
STARLINK-3151           
1 49408U 21104A   22272.27663706  .00001549  00000+0  11539-3 0  9995
2 49408  53.2161 113.8722 0001934  50.5186 309.5977 15.08837564 48808
STARLINK-3075           
1 49409U 21104B   22272.55632171  .00000155  00000+0  27838-4 0  9991
2 49409  53.2157 112.6200 0001823  50.2850 309.8302 15.08834569 49936
STARLINK-3147           
1 49410U 21104C   22272.54895762  .00000882  00000+0  73473-4 0  9992
2 49410  53.2154 112.6560 0001746  53.7626 306.3527 15.08846866 48840
STARLINK-3162           
1 49411U 21104D   22272.54251929 -.00001319  00000+0 -64829-4 0  9997
2 49411  53.2160 102.6833 0001891  48.3705 311.7449 15.08828598 50061
STARLINK-3144           
1 49412U 21104E   22272.28768099  .00000214  00000+0  31525-4 0  9998
2 49412  53.2167 113.8237 0001424  73.3493 286.7655 15.08835755 48818
STARLINK-3157           
1 49413U 21104F   22271.67771380 -.00000427  00000+0 -86981-5 0  9993
2 49413  53.2159 106.5594 0001750  51.7883 308.3266 15.08842175 48857
STARLINK-3146           
1 49414U 21104G   22272.54527758  .00001668  00000+0  12283-3 0  9997
2 49414  53.2173 112.6603 0001642  49.2793 310.8342 15.08843964 48844
STARLINK-3159           
1 49415U 21104H   22272.53515793  .00000408  00000+0  43774-4 0  9994
2 49415  53.2161 102.7120 0002140  44.9884 315.1282 15.08837926 50062
STARLINK-3133           
1 49416U 21104J   22272.60415547  .00002259  00000+0  15997-3 0  9990
2 49416  53.2153 112.3905 0001667  59.0510 301.0646 15.08845601 48859
STARLINK-3154           
1 49417U 21104K   22272.53147336 -.00001081  00000+0 -49805-4 0  9991
2 49417  53.2152 102.7284 0001848  40.4365 319.6764 15.08834794 48975
STARLINK-3111           
1 49418U 21104L   22272.60047612  .00001460  00000+0  10982-3 0  9998
2 49418  53.2172 112.4206 0001820  50.5768 309.5385 15.08842221 48846
STARLINK-3120           
1 49419U 21104M   22272.58942880  .00001226  00000+0  95120-4 0  9995
2 49419  53.2158 112.4727 0001677  64.7831 295.3335 15.08840835 48843
STARLINK-3110           
1 49420U 21104N   22272.53055454 -.00004277  00000+0 -25087-3 0  9999
2 49420  53.2152 112.7263 0001611  53.3546 306.7594 15.08829295 48832
STARLINK-3112           
1 49421U 21104P   22272.58208714 -.00002847  00000+0 -16085-3 0  9993
2 49421  53.2166 112.5068 0001934  57.1974 302.9204 15.08832502 48846
STARLINK-3161           
1 49422U 21104Q   22272.59313016 -.00002855  00000+0 -16140-3 0  9998
2 49422  53.2158 112.4569 0001729  54.6939 305.4215 15.08828786 48847
STARLINK-3149           
1 49423U 21104R   22272.04479052  .00000146  00000+0  27257-4 0  9993
2 49423  53.2142 114.9205 0001662  49.3380 310.7756 15.08842900 49846
STARLINK-3135           
1 49424U 21104S   22272.51953589  .00015953  00000+0  10200-2 0  9998
2 49424  53.2164 112.7840 0001584  81.8865 278.2307 15.08772841 49918
STARLINK-3139           
1 49425U 21104T   22272.57103783  .00000092  00000+0  23919-4 0  9999
2 49425  53.2155 112.5541 0002058  48.9879 311.1291 15.08842759 48858
STARLINK-3114           
1 49426U 21104U   22271.98223631  .00001651  00000+0  12182-3 0  9990
2 49426  53.2168 115.2017 0001772  55.2826 304.8333 15.08841217 48759
STARLINK-3131           
1 49427U 21104V   22272.56735216 -.00002686  00000+0 -15077-3 0  9990
2 49427  53.2177 112.5751 0002721  55.9739 304.1511 15.08820851 49944
STARLINK-3121           
1 49428U 21104W   22272.55726218  .00001793  00000+0  13074-3 0  9993
2 49428  53.2163 112.6149 0001642  52.4997 307.6144 15.08836954 48851
STARLINK-3138           
1 49430U 21104Y   22272.29872083  .00001758  00000+0  12851-3 0  9992
2 49430  53.2161 113.7808 0001756  67.8802 292.2376 15.08839506 48815
STARLINK-3153           
1 49431U 21104Z   22272.59039351 -.00000055  00000+0  14653-4 0  9992
2 49431  53.2183 112.4604 0001784  80.7341 279.3853 15.08834889 48852
STARLINK-3158           
1 49432U 21104AA  22272.52876055 -.00000215  00000+0  45991-5 0  9994
2 49432  53.2146 102.7387 0002465  39.5303 320.5869 15.08836787 48988
STARLINK-3079           
1 49433U 21104AB  22272.46247720  .00000926  00000+0  76276-4 0  9996
2 49433  53.2165  93.0327 0002177  36.0960 324.0178 15.08839386 50205
STARLINK-3134           
1 49434U 21104AC  22272.56000515 -.00002727  00000+0 -15337-3 0  9990
2 49434  53.2159 112.6104 0001594  62.1276 297.9877 15.08826442 49933
STARLINK-3117           
1 49435U 21104AD  22272.53336782 -.00002847  00000+0 -16093-3 0  9999
2 49435  53.2133  92.7150 0001306  62.0255 298.0869 15.08823893 49123
STARLINK-3049           
1 49436U 21104AE  22272.53239048  .00001707  00000+0  12526-3 0  9996
2 49436  53.2166  92.7119 0001437  16.3804 343.7235 15.08848172 49124
STARLINK-3130           
1 49437U 21104AF  22272.52503379  .00000980  00000+0  79684-4 0  9998
2 49437  53.2166  92.7625 0001957  45.5515 314.5637 15.08847763 49124
STARLINK-3044           
1 49438U 21104AG  22272.52135468  .00000376  00000+0  41719-4 0  9996
2 49438  53.2165  92.7753 0001669  51.6902 308.4240 15.08837583 49125
STARLINK-3108           
1 49439U 21104AH  22272.56919538  .00000045  00000+0  20936-4 0  9990
2 49439  53.2154  92.5654 0002084  48.7847 311.3325 15.08844864 49137
STARLINK-3105           
1 49440U 21104AJ  22272.51768849 -.00002931  00000+0 -16619-3 0  9994
2 49440  53.2151  92.7960 0001952  44.5925 315.5224 15.08825409 49129
STARLINK-3128           
1 49441U 21104AK  22272.56552577 -.00001617  00000+0 -83520-4 0  9995
2 49441  53.2170  92.5814 0001685  56.4602 303.6551 15.08840310 49134
STARLINK-3098           
1 49442U 21104AL  22272.24906329 -.00000893  00000+0 -38021-4 0  9990
2 49442  53.2149  93.9936 0002809  76.2854 283.8451 15.08827445 49085
STARLINK-3136           
1 49443U 21104AM  22272.49560461  .00005087  00000+0  33748-3 0  9999
2 49443  53.2134  92.8880 0000931  52.8152 307.2925 15.08837839 49121
STARLINK-3126           
1 49444U 21104AN  22272.51031838  .00005787  00000+0  38128-3 0  9998
2 49444  53.2147  92.8244 0001836  45.8743 314.2400 15.08850090 49123
STARLINK-3122           
1 49445U 21104AP  22272.52411100 -.00002736  00000+0 -15388-3 0  9990
2 49445  53.2162 102.7665 0000854 258.3561 101.7336 15.08848246 48987
STARLINK-3099           
1 49446U 21104AQ  22272.57288686 -.00001361  00000+0 -67469-4 0  9998
2 49446  53.2159  92.5428 0001505  79.1312 280.9850 15.08827390 49130
STARLINK-3115           
1 49447U 21104AR  22272.25180447 -.00002057  00000+0 -11120-3 0  9995
2 49447  53.2146 103.9847 0001700  50.2001 309.9140 15.08830081 48944
STARLINK-3097           
1 49448U 21104AS  22272.52780136 -.00000233  00000+0  35008-5 0  9993
2 49448  53.2155 102.7433 0002235  50.3944 309.7245 15.08837620 48988
STARLINK-3137           
1 49449U 21104AT  22272.57932403 -.00000111  00000+0  11131-4 0  9990
2 49449  53.2156 102.5163 0001722  56.2312 303.8844 15.08832294 48995
STARLINK-3127           
1 49450U 21104AU  22272.05675116 -.00000750  00000+0 -29025-4 0  9991
2 49450  53.2144 104.8507 0001983  47.3845 312.7314 15.08837121 49178
STARLINK-3125           
1 49451U 21104AV  22272.57563839 -.00000115  00000+0  10886-4 0  9996
2 49451  53.2154 102.5327 0001885  50.2080 309.9078 15.08835377 48995
STARLINK-3150           
1 49452U 21104AW  22272.56188012 -.00001824  00000+0 -96547-4 0  9999
2 49452  53.2162 102.5905 0001483  58.5587 301.5549 15.08827440 48997
STARLINK-3129           
1 49453U 21104AX  22272.56827667  .00001364  00000+0  10378-3 0  9990
2 49453  53.2165 102.5637 0001700  49.4366 310.6774 15.08829411 48990
